[
    {
        "Altitude(m)": 710304.5339732135,
        "Argument of Periapsis(deg)": 0.005695060593313534,
        "Eccentricity": 0.0,
        "Inclination(deg)": 45.0,
        "Latitude(deg)": -26.286495677184586,
        "Longitude(deg)": -120.94661327082166,
        "Mean Anomaly(deg)": 218.4939083237404,
        "RAAN(deg)": 129.9946240292709,
        "Satellite Name": "Constellation 1 585",
        "Satellite Number": 585,
        "Semi-Major Axis(m)": 7083131.272910544,
        "Time(s)": 95
    },
    {
        "Altitude(m)": 710318.3741080659,
        "Argument of Periapsis(deg)": 0.00575500859955894,
        "Eccentricity": 0.0,
        "Inclination(deg)": 45.0,
        "Latitude(deg)": -26.323999314987166,
        "Longitude(deg)": -120.89754103569541,
        "Mean Anomaly(deg)": 218.55460946399037,
        "RAAN(deg)": 129.99456744010533,
        "Satellite Name": "Constellation 1 585",
        "Satellite Number": 585,
        "Semi-Major Axis(m)": 7083131.272910544,
        "Time(s)": 96
    },
    {
        "Altitude(m)": 710332.214998934,
        "Argument of Periapsis(deg)": 0.005814956605804345,
        "Eccentricity": 0.0,
        "Inclination(deg)": 45.0,
        "Latitude(deg)": -26.36148293755325,
        "Longitude(deg)": -120.84843451582191,
        "Mean Anomaly(deg)": 218.61531060424022,
        "RAAN(deg)": 129.99451085093978,
        "Satellite Name": "Constellation 1 585",
        "Satellite Number": 585,
        "Semi-Major Axis(m)": 7083131.272910544,
        "Time(s)": 97
    },
    {
        "Altitude(m)": 710346.056598312,
        "Argument of Periapsis(deg)": 0.00587490461204975,
        "Eccentricity": 0.0,
        "Inclination(deg)": 45.0,
        "Latitude(deg)": -26.398946499987982,
        "Longitude(deg)": -120.79929381916396,
        "Mean Anomaly(deg)": 218.67601174449007,
        "RAAN(deg)": 129.9944542617742,
        "Satellite Name": "Constellation 1 585",
        "Satellite Number": 585,
        "Semi-Major Axis(m)": 7083131.272910544,
        "Time(s)": 98
    },
    {
        "Altitude(m)": 710359.8988586899,
        "Argument of Periapsis(deg)": 0.005934852618295156,
        "Eccentricity": 0.0,
        "Inclination(deg)": 45.0,
        "Latitude(deg)": -26.436389957331293,
        "Longitude(deg)": -120.75011888559413,
        "Mean Anomaly(deg)": 218.73671288474,
        "RAAN(deg)": 129.9943976726086,
        "Satellite Name": "Constellation 1 585",
        "Satellite Number": 585,
        "Semi-Major Axis(m)": 7083131.272910544,
        "Time(s)": 99
    },
    {
        "Altitude(m)": 710373.741732537,
        "Argument of Periapsis(deg)": 0.005994800624540561,
        "Eccentricity": 0.0,
        "Inclination(deg)": 45.0,
        "Latitude(deg)": -26.47381326455767,
        "Longitude(deg)": -120.70090965499237,
        "Mean Anomaly(deg)": 218.79741402498993,
        "RAAN(deg)": 129.99434108344306,
        "Satellite Name": "Constellation 1 585",
        "Satellite Number": 585,
        "Semi-Major Axis(m)": 7083131.272910544,
        "Time(s)": 100
    },
    {
        "Altitude(m)": 710387.58517231,
        "Argument of Periapsis(deg)": 0.006054748630785968,
        "Eccentricity": 0.0,
        "Inclination(deg)": 45.0,
        "Latitude(deg)": -26.511216376576414,
        "Longitude(deg)": -120.65166606724567,
        "Mean Anomaly(deg)": 218.85811516523984,
        "RAAN(deg)": 129.99428449427748,
        "Satellite Name": "Constellation 1 585",
        "Satellite Number": 585,
        "Semi-Major Axis(m)": 7083131.272910544,
        "Time(s)": 101
    },
    {
        "Altitude(m)": 710401.429130453,
        "Argument of Periapsis(deg)": 0.006114696637031373,
        "Eccentricity": 0.0,
        "Inclination(deg)": 45.0,
        "Latitude(deg)": -26.548599248230985,
        "Longitude(deg)": -120.60238806224946,
        "Mean Anomaly(deg)": 218.91881630548968,
        "RAAN(deg)": 129.99422790511193,
        "Satellite Name": "Constellation 1 585",
        "Satellite Number": 585,
        "Semi-Major Axis(m)": 7083131.272910544,
        "Time(s)": 102
    },
    {
        "Altitude(m)": 710415.2735593886,
        "Argument of Periapsis(deg)": 0.006174644643276778,
        "Eccentricity": 0.0,
        "Inclination(deg)": 45.0,
        "Latitude(deg)": -26.58596183429941,
        "Longitude(deg)": -120.5530755799072,
        "Mean Anomaly(deg)": 218.97951744573962,
        "RAAN(deg)": 129.99417131594635,
        "Satellite Name": "Constellation 1 585",
        "Satellite Number": 585,
        "Semi-Major Axis(m)": 7083131.272910544,
        "Time(s)": 103
    },
    {
        "Altitude(m)": 710429.1184115385,
        "Argument of Periapsis(deg)": 0.006234592649522184,
        "Eccentricity": 0.0,
        "Inclination(deg)": 45.0,
        "Latitude(deg)": -26.623304089493793,
        "Longitude(deg)": -120.50372872822823,
        "Mean Anomaly(deg)": 219.04021858598952,
        "RAAN(deg)": 129.99411472678077,
        "Satellite Name": "Constellation 1 585",
        "Satellite Number": 585,
        "Semi-Major Axis(m)": 7083131.272910544,
        "Time(s)": 104
    },
    {
        "Altitude(m)": 710442.9636393003,
        "Argument of Periapsis(deg)": 0.00629454065576759,
        "Eccentricity": 0.0,
        "Inclination(deg)": 45.0,
        "Latitude(deg)": -26.660625968460966,
        "Longitude(deg)": -120.45434711093954,
        "Mean Anomaly(deg)": 219.1009197262394,
        "RAAN(deg)": 129.9940581376152,
        "Satellite Name": "Constellation 1 585",
        "Satellite Number": 585,
        "Semi-Major Axis(m)": 7083131.272910544,
        "Time(s)": 105
    },
    {
        "Altitude(m)": 710456.8091950605,
        "Argument of Periapsis(deg)": 0.006354488662012995,
        "Eccentricity": 0.0,
        "Inclination(deg)": 45.0,
        "Latitude(deg)": -26.69792742578126,
        "Longitude(deg)": -120.40493083606908,
        "Mean Anomaly(deg)": 219.16162086648924,
        "RAAN(deg)": 129.99400154844963,
        "Satellite Name": "Constellation 1 585",
        "Satellite Number": 585,
        "Semi-Major Axis(m)": 7083131.272910544,
        "Time(s)": 106
    },
    {
        "Altitude(m)": 710470.6550311954,
        "Argument of Periapsis(deg)": 0.006414436668258401,
        "Eccentricity": 0.0,
        "Inclination(deg)": 45.0,
        "Latitude(deg)": -26.73520841596935,
        "Longitude(deg)": -120.35547984355738,
        "Mean Anomaly(deg)": 219.22232200673923,
        "RAAN(deg)": 129.99394495928408,
        "Satellite Name": "Constellation 1 585",
        "Satellite Number": 585,
        "Semi-Major Axis(m)": 7083131.272910544,
        "Time(s)": 107
    },
    {
        "Altitude(m)": 710484.5011000695,
        "Argument of Periapsis(deg)": 0.0064743846745038075,
        "Eccentricity": 0.0,
        "Inclination(deg)": 45.0,
        "Latitude(deg)": -26.772468893473707,
        "Longitude(deg)": -120.30599407335542,
        "Mean Anomaly(deg)": 219.28302314698908,
        "RAAN(deg)": 129.99388837011847,
        "Satellite Name": "Constellation 1 585",
        "Satellite Number": 585,
        "Semi-Major Axis(m)": 7083131.272910544,
        "Time(s)": 108
    },
    {
        "Altitude(m)": 710498.3473540297,
        "Argument of Periapsis(deg)": 0.0065343326807492125,
        "Eccentricity": 0.0,
        "Inclination(deg)": 45.0,
        "Latitude(deg)": -26.809708812676753,
        "Longitude(deg)": -120.25647346542466,
        "Mean Anomaly(deg)": 219.34372428723898,
        "RAAN(deg)": 129.99383178095292,
        "Satellite Name": "Constellation 1 585",
        "Satellite Number": 585,
        "Semi-Major Axis(m)": 7083131.272910544,
        "Time(s)": 109
    },
    {
        "Altitude(m)": 710512.1937454127,
        "Argument of Periapsis(deg)": 0.0065942806869946176,
        "Eccentricity": 0.0,
        "Inclination(deg)": 45.0,
        "Latitude(deg)": -26.846928127894707,
        "Longitude(deg)": -120.2069179597376,
        "Mean Anomaly(deg)": 219.40442542748892,
        "RAAN(deg)": 129.99377519178736,
        "Satellite Name": "Constellation 1 585",
        "Satellite Number": 585,
        "Semi-Major Axis(m)": 7083131.272910544,
        "Time(s)": 110
    },
    {
        "Altitude(m)": 710526.0402265432,
        "Argument of Periapsis(deg)": 0.006654228693240024,
        "Eccentricity": 0.0,
        "Inclination(deg)": 45.0,
        "Latitude(deg)": -26.88412679337717,
        "Longitude(deg)": -120.15732766437554,
        "Mean Anomaly(deg)": 219.4651265677388,
        "RAAN(deg)": 129.99371860262178,
        "Satellite Name": "Constellation 1 585",
        "Satellite Number": 585,
        "Semi-Major Axis(m)": 7083131.272910544,
        "Time(s)": 111
    },
    {
        "Altitude(m)": 710539.8867497352,
        "Argument of Periapsis(deg)": 0.006714176699485429,
        "Eccentricity": 0.0,
        "Inclination(deg)": 45.0,
        "Latitude(deg)": -26.92130476330803,
        "Longitude(deg)": -120.10770218313996,
        "Mean Anomaly(deg)": 219.52582770798873,
        "RAAN(deg)": 129.99366201345623,
        "Satellite Name": "Constellation 1 585",
        "Satellite Number": 585,
        "Semi-Major Axis(m)": 7083131.272910544,
        "Time(s)": 112
    },
    {
        "Altitude(m)": 710553.733267283,
        "Argument of Periapsis(deg)": 0.006774124705730835,
        "Eccentricity": 0.0,
        "Inclination(deg)": 45.0,
        "Latitude(deg)": -26.958461991803933,
        "Longitude(deg)": -120.0580416241363,
        "Mean Anomaly(deg)": 219.58652884823854,
        "RAAN(deg)": 129.99360542429065,
        "Satellite Name": "Constellation 1 585",
        "Satellite Number": 585,
        "Semi-Major Axis(m)": 7083131.272910544,
        "Time(s)": 113
    }
]